{"fetched_at":"2026-04-01T16:59:04Z","count":11445,"tles":[{"name":"RASSVET-3 OBJECT E","line1":"1 68364U 26061E   26090.65732667  .00066220  37193-6  23030-3 0  9997","line2":"2 68364  82.2970  99.7112 0027131  44.6670 315.6779 15.88592069  1267","category":"Other"}]}